{
  "type": "FeatureCollection",
  "features": [
    {
      "type": "Feature",
      "properties": {
        "norad_id": 44334,
        "name": "EUTELSAT 7C",
        "group": "eutelsat",
        "lat": 0.056862896595074916,
        "lon": -72.30359120656915,
        "alt_km": 35777.91613171659,
        "timestamp": "2025-12-03T13:52:09.237101+00:00",
        "meta_object_name": "EUTELSAT 7C",
        "meta_object_id": "2019-034B",
        "meta_epoch": "2025-12-03T06:56:26.020320",
        "meta_mean_motion": 1.00269069,
        "meta_eccentricity": 0.00033988,
        "meta_inclination": 0.0762,
        "meta_ra_of_asc_node": 181.9926,
        "meta_arg_of_pericenter": 53.7303,
        "meta_mean_anomaly": 307.756,
        "meta_ephemeris_type": 0,
        "meta_classification_type": "U",
        "meta_norad_cat_id": 44334,
        "meta_element_set_no": 999,
        "meta_rev_at_epoch": 487,
        "meta_bstar": 0,
        "meta_mean_motion_dot": 6.7e-07,
        "meta_mean_motion_ddot": 0,
        "tle_line1": "1 44334U 19034B   25337.28919005  .00000067  00000+0  00000+0 0  9990",
        "tle_line2": "2 44334   0.0762 181.9926 0003398  53.7303 307.7560  1.00269069  4875"
      },
      "geometry": {
        "type": "Point",
        "coordinates": [
          -72.30359120656915,
          0.056862896595074916
        ]
      }
    },
    {
      "type": "Feature",
      "properties": {
        "norad_id": 44624,
        "name": "EUTELSAT 5 WEST B",
        "group": "eutelsat",
        "lat": -0.0739681513336017,
        "lon": -84.28914031528332,
        "alt_km": 35771.35082863379,
        "timestamp": "2025-12-03T13:52:09.237113+00:00",
        "meta_object_name": "EUTELSAT 5 WEST B",
        "meta_object_id": "2019-067A",
        "meta_epoch": "2025-12-03T06:52:56.355168",
        "meta_mean_motion": 1.00272745,
        "meta_eccentricity": 0.00036887,
        "meta_inclination": 0.0714,
        "meta_ra_of_asc_node": 328.1071,
        "meta_arg_of_pericenter": 285.389,
        "meta_mean_anomaly": 277.1323,
        "meta_ephemeris_type": 0,
        "meta_classification_type": "U",
        "meta_norad_cat_id": 44624,
        "meta_element_set_no": 999,
        "meta_rev_at_epoch": 2247,
        "meta_bstar": 0,
        "meta_mean_motion_dot": -2.3e-07,
        "meta_mean_motion_ddot": 0,
        "tle_line1": "1 44624U 19067A   25337.28676337 -.00000023  00000+0  00000+0 0  9999",
        "tle_line2": "2 44624   0.0714 328.1071 0003688 285.3890 277.1323  1.00272745 22474"
      },
      "geometry": {
        "type": "Point",
        "coordinates": [
          -84.28914031528332,
          -0.0739681513336017
        ]
      }
    },
    {
      "type": "Feature",
      "properties": {
        "norad_id": 45027,
        "name": "EUTELSAT KONNECT",
        "group": "eutelsat",
        "lat": -0.029932823760704923,
        "lon": -72.13305379919751,
        "alt_km": 35779.74800364,
        "timestamp": "2025-12-03T13:52:09.237124+00:00",
        "meta_object_name": "EUTELSAT KONNECT",
        "meta_object_id": "2020-005B",
        "meta_epoch": "2025-12-03T06:56:26.020320",
        "meta_mean_motion": 1.00268232,
        "meta_eccentricity": 0.00017348,
        "meta_inclination": 0.0678,
        "meta_ra_of_asc_node": 99.5255,
        "meta_arg_of_pericenter": 186.4968,
        "meta_mean_anomaly": 257.6579,
        "meta_ephemeris_type": 0,
        "meta_classification_type": "U",
        "meta_norad_cat_id": 45027,
        "meta_element_set_no": 999,
        "meta_rev_at_epoch": 2236,
        "meta_bstar": 0,
        "meta_mean_motion_dot": 6.8e-07,
        "meta_mean_motion_ddot": 0,
        "tle_line1": "1 45027U 20005B   25337.28919005  .00000068  00000+0  00000+0 0  9991",
        "tle_line2": "2 45027   0.0678  99.5255 0001734 186.4968 257.6579  1.00268232 22361"
      },
      "geometry": {
        "type": "Point",
        "coordinates": [
          -72.13305379919751,
          -0.029932823760704923
        ]
      }
    },
    {
      "type": "Feature",
      "properties": {
        "norad_id": 49056,
        "name": "EUTELSAT QUANTUM",
        "group": "eutelsat",
        "lat": -0.01041724677932976,
        "lon": -31.573163747106946,
        "alt_km": 35778.82594392904,
        "timestamp": "2025-12-03T13:52:09.237136+00:00",
        "meta_object_name": "EUTELSAT QUANTUM",
        "meta_object_id": "2021-069B",
        "meta_epoch": "2025-12-03T01:59:50.557920",
        "meta_mean_motion": 1.00271603,
        "meta_eccentricity": 0.00037476,
        "meta_inclination": 0.0169,
        "meta_ra_of_asc_node": 10.728,
        "meta_arg_of_pericenter": 255.0351,
        "meta_mean_anomaly": 244.0851,
        "meta_ephemeris_type": 0,
        "meta_classification_type": "U",
        "meta_norad_cat_id": 49056,
        "meta_element_set_no": 999,
        "meta_rev_at_epoch": 1596,
        "meta_bstar": 0,
        "meta_mean_motion_dot": 1.45e-06,
        "meta_mean_motion_ddot": 0,
        "tle_line1": "1 49056U 21069B   25337.08322405  .00000145  00000+0  00000+0 0  9994",
        "tle_line2": "2 49056   0.0169  10.7280 0003747 255.0351 244.0851  1.00271603 15967"
      },
      "geometry": {
        "type": "Point",
        "coordinates": [
          -31.573163747106946,
          -0.01041724677932976
        ]
      }
    },
    {
      "type": "Feature",
      "properties": {
        "norad_id": 53765,
        "name": "EUTELSAT KONNECT VHTS",
        "group": "eutelsat",
        "lat": -0.02243667514310355,
        "lon": -76.60830998747836,
        "alt_km": 35779.790181212345,
        "timestamp": "2025-12-03T13:52:09.237148+00:00",
        "meta_object_name": "EUTELSAT KONNECT VHTS",
        "meta_object_id": "2022-110A",
        "meta_epoch": "2025-12-03T05:12:28.480320",
        "meta_mean_motion": 1.00269007,
        "meta_eccentricity": 0.00027636,
        "meta_inclination": 0.0603,
        "meta_ra_of_asc_node": 107.1016,
        "meta_arg_of_pericenter": 123.1613,
        "meta_mean_anomaly": 282.8564,
        "meta_ephemeris_type": 0,
        "meta_classification_type": "U",
        "meta_norad_cat_id": 53765,
        "meta_element_set_no": 999,
        "meta_rev_at_epoch": 486,
        "meta_bstar": 0,
        "meta_mean_motion_dot": 3.6e-07,
        "meta_mean_motion_ddot": 0,
        "tle_line1": "1 53765U 22110A   25337.21699630  .00000036  00000+0  00000+0 0  9995",
        "tle_line2": "2 53765   0.0603 107.1016 0002763 123.1613 282.8564  1.00269007  4866"
      },
      "geometry": {
        "type": "Point",
        "coordinates": [
          -76.60830998747836,
          -0.02243667514310355
        ]
      }
    },
    {
      "type": "Feature",
      "properties": {
        "norad_id": 54048,
        "name": "EUTELSAT HOTBIRD 13F",
        "group": "eutelsat",
        "lat": -0.00315377159109067,
        "lon": -66.3357727079834,
        "alt_km": 35782.315207894564,
        "timestamp": "2025-12-03T13:52:09.237160+00:00",
        "meta_object_name": "EUTELSAT HOTBIRD 13F",
        "meta_object_id": "2022-134A",
        "meta_epoch": "2025-12-02T19:57:38.448864",
        "meta_mean_motion": 1.00271371,
        "meta_eccentricity": 0.00019176,
        "meta_inclination": 0.0542,
        "meta_ra_of_asc_node": 289.0481,
        "meta_arg_of_pericenter": 66.1354,
        "meta_mean_anomaly": 29.1621,
        "meta_ephemeris_type": 0,
        "meta_classification_type": "U",
        "meta_norad_cat_id": 54048,
        "meta_element_set_no": 999,
        "meta_rev_at_epoch": 1140,
        "meta_bstar": 0,
        "meta_mean_motion_dot": 1.07e-06,
        "meta_mean_motion_ddot": 0,
        "tle_line1": "1 54048U 22134A   25336.83169501  .00000107  00000+0  00000+0 0  9991",
        "tle_line2": "2 54048   0.0542 289.0481 0001917  66.1354  29.1621  1.00271371 11408"
      },
      "geometry": {
        "type": "Point",
        "coordinates": [
          -66.3357727079834,
          -0.00315377159109067
        ]
      }
    },
    {
      "type": "Feature",
      "properties": {
        "norad_id": 54225,
        "name": "EUTELSAT HOTBIRD 13G",
        "group": "eutelsat",
        "lat": 0.02652155455762072,
        "lon": -66.29991752557567,
        "alt_km": 35788.99005001255,
        "timestamp": "2025-12-03T13:52:09.237172+00:00",
        "meta_object_name": "EUTELSAT HOTBIRD 13G",
        "meta_object_id": "2022-146A",
        "meta_epoch": "2025-12-03T00:07:14.496096",
        "meta_mean_motion": 1.00271219,
        "meta_eccentricity": 0.00021047,
        "meta_inclination": 0.0475,
        "meta_ra_of_asc_node": 238.4149,
        "meta_arg_of_pericenter": 306.4933,
        "meta_mean_anomaly": 262.0024,
        "meta_ephemeris_type": 0,
        "meta_classification_type": "U",
        "meta_norad_cat_id": 54225,
        "meta_element_set_no": 999,
        "meta_rev_at_epoch": 549,
        "meta_bstar": 0,
        "meta_mean_motion_dot": 1.07e-06,
        "meta_mean_motion_ddot": 0,
        "tle_line1": "1 54225U 22146A   25337.00502889  .00000107  00000+0  00000+0 0  9991",
        "tle_line2": "2 54225   0.0475 238.4149 0002104 306.4933 262.0024  1.00271219  5499"
      },
      "geometry": {
        "type": "Point",
        "coordinates": [
          -66.29991752557567,
          0.02652155455762072
        ]
      }
    }
  ]
}